start=new Date('2022-05-26T00:00:00.000Z').valueOf();
sats=[{"NORAD_CAT_ID":"48568","TIME_SYSTEM":"UTC","GP_ID":"204512622","CENTER_NAME":"EARTH","TLE_LINE1":"1 48568U 21041R   22145.54215364 -.00000602  00000-0 -21527-4 0  9994","RCS_SIZE":"LARGE","APOAPSIS":"548.198","EPHEMERIS_TYPE":"0","REV_AT_EPOCH":"5697","REF_FRAME":"TEME","MEAN_ELEMENT_THEORY":"SGP4","CLASSIFICATION_TYPE":"U","MEAN_MOTION_DDOT":"0.0000000000000","EPOCH":"2022-05-25T13:00:42.074496","FILE":"3464230","LAUNCH_DATE":"2021-05-15","TLE_LINE2":"2 48568  53.0544 225.3059 0001323  63.9411 296.1714 15.06377709 56975","MEAN_MOTION_DOT":"-0.00000602","ARG_OF_PERICENTER":"63.9411","ECCENTRICITY":"0.00013230","MEAN_MOTION":"15.06377709","OBJECT_TYPE":"PAYLOAD","PERIAPSIS":"546.366","INCLINATION":"53.0544","DECAY_DATE":null,"OBJECT_NAME":"STARLINK-2217","ELEMENT_SET_NO":"999","COUNTRY_CODE":"US","BSTAR":"-0.00002152700000","PERIOD":"95.594","MEAN_ANOMALY":"296.1714","RA_OF_ASC_NODE":"225.3059","OBJECT_ID":"2021-041R","SITE":"AFETR","SEMIMAJOR_AXIS":"6925.417"},{"CENTER_NAME":"EARTH","TLE_LINE1":"1 48569U 21041S   22145.50160039 -.00000221  00000-0  40477-5 0  9991","GP_ID":"204475641","TIME_SYSTEM":"UTC","NORAD_CAT_ID":"48569","FILE":"3463581","EPOCH":"2022-05-25T12:02:18.273696","CLASSIFICATION_TYPE":"U","MEAN_MOTION_DDOT":"0.0000000000000","REF_FRAME":"TEME","MEAN_ELEMENT_THEORY":"SGP4","REV_AT_EPOCH":"5697","APOAPSIS":"548.383","RCS_SIZE":"LARGE","EPHEMERIS_TYPE":"0","ELEMENT_SET_NO":"999","DECAY_DATE":null,"OBJECT_NAME":"STARLINK-2219","PERIAPSIS":"546.092","INCLINATION":"53.0537","OBJECT_TYPE":"PAYLOAD","MEAN_MOTION":"15.06392201","MEAN_MOTION_DOT":"-0.00000221","ARG_OF_PERICENTER":"61.6575","ECCENTRICITY":"0.00016540","TLE_LINE2":"2 48569  53.0537 225.4917 0001654  61.6575 298.4581 15.06392201 56976","LAUNCH_DATE":"2021-05-15","SEMIMAJOR_AXIS":"6925.372","OBJECT_ID":"2021-041S","SITE":"AFETR","RA_OF_ASC_NODE":"225.4917","PERIOD":"95.593","MEAN_ANOMALY":"298.4581","BSTAR":"0.00000404770000","COUNTRY_CODE":"US"},{"CLASSIFICATION_TYPE":"U","MEAN_MOTION_DDOT":"0.0000000000000","REF_FRAME":"TEME","MEAN_ELEMENT_THEORY":"SGP4","REV_AT_EPOCH":"5643","RCS_SIZE":"LARGE","APOAPSIS":"548.300","EPHEMERIS_TYPE":"0","FILE":"3463908","EPOCH":"2022-05-25T13:20:35.455488","TIME_SYSTEM":"UTC","NORAD_CAT_ID":"48570","CENTER_NAME":"EARTH","TLE_LINE1":"1 48570U 21041T   22145.55596592 -.00000847  00000-0 -37974-4 0  9997","GP_ID":"204502162","PERIOD":"95.593","RA_OF_ASC_NODE":"235.2356","MEAN_ANOMALY":"294.6520","BSTAR":"-0.00003797400000","COUNTRY_CODE":"US","SEMIMAJOR_AXIS":"6925.397","OBJECT_ID":"2021-041T","SITE":"AFETR","MEAN_MOTION":"15.06384129","MEAN_MOTION_DOT":"-0.00000847","ECCENTRICITY":"0.00014980","ARG_OF_PERICENTER":"65.4625","TLE_LINE2":"2 48570  53.0568 235.2356 0001498  65.4625 294.6520 15.06384129 56434","LAUNCH_DATE":"2021-05-15","ELEMENT_SET_NO":"999","DECAY_DATE":null,"OBJECT_NAME":"STARLINK-2220","PERIAPSIS":"546.225","INCLINATION":"53.0568","OBJECT_TYPE":"PAYLOAD"},{"SEMIMAJOR_AXIS":"6925.321","SITE":"AFETR","OBJECT_ID":"2021-041U","BSTAR":"0.00073884000000","COUNTRY_CODE":"US","PERIOD":"95.592","RA_OF_ASC_NODE":"233.7236","MEAN_ANOMALY":"292.5493","PERIAPSIS":"546.112","INCLINATION":"53.0533","OBJECT_TYPE":"PAYLOAD","ELEMENT_SET_NO":"999","DECAY_DATE":null,"OBJECT_NAME":"STARLINK-2221","LAUNCH_DATE":"2021-05-15","TLE_LINE2":"2 48571  53.0533 233.7236 0001551  67.5660 292.5493 15.06408863 56493","MEAN_MOTION":"15.06408863","MEAN_MOTION_DOT":"0.00010743","ARG_OF_PERICENTER":"67.5660","ECCENTRICITY":"0.00015510","EPOCH":"2022-05-25T21:28:54.126624","FILE":"3464394","REV_AT_EPOCH":"5649","RCS_SIZE":"LARGE","APOAPSIS":"548.261","EPHEMERIS_TYPE":"0","CLASSIFICATION_TYPE":"U","MEAN_MOTION_DDOT":"0.0000000000000","REF_FRAME":"TEME","MEAN_ELEMENT_THEORY":"SGP4","GP_ID":"204538303","CENTER_NAME":"EARTH","TLE_LINE1":"1 48571U 21041U   22145.89507091  .00010743  00000-0  73884-3 0  9994","NORAD_CAT_ID":"48571","TIME_SYSTEM":"UTC"},{"TIME_SYSTEM":"UTC","NORAD_CAT_ID":"48572","CENTER_NAME":"EARTH","TLE_LINE1":"1 48572U 21041V   22145.89137535  .00012872  00000-0  88113-3 0  9993","GP_ID":"204538554","REF_FRAME":"TEME","MEAN_ELEMENT_THEORY":"SGP4","CLASSIFICATION_TYPE":"U","MEAN_MOTION_DDOT":"0.0000000000000","APOAPSIS":"548.178","RCS_SIZE":"LARGE","EPHEMERIS_TYPE":"0","REV_AT_EPOCH":"5649","FILE":"3464394","EPOCH":"2022-05-25T21:23:34.830240","MEAN_MOTION_DOT":"0.00012872","ARG_OF_PERICENTER":"75.3576","ECCENTRICITY":"0.00014540","MEAN_MOTION":"15.06413939","TLE_LINE2":"2 48572  53.0526 233.7357 0001454  75.3576 284.7574 15.06413939 56498","LAUNCH_DATE":"2021-05-15","DECAY_DATE":null,"OBJECT_NAME":"STARLINK-2222","ELEMENT_SET_NO":"999","OBJECT_TYPE":"PAYLOAD","PERIAPSIS":"546.164","INCLINATION":"53.0526","MEAN_ANOMALY":"284.7574","PERIOD":"95.591","RA_OF_ASC_NODE":"233.7357","COUNTRY_CODE":"US","BSTAR":"0.00088113000000","SITE":"AFETR","OBJECT_ID":"2021-041V","SEMIMAJOR_AXIS":"6925.306"},{"TLE_LINE2":"2 48573  53.0530 223.8149 0001856  56.4082 303.7083 15.06415223 56621","LAUNCH_DATE":"2021-05-15","ECCENTRICITY":"0.00018560","ARG_OF_PERICENTER":"56.4082","MEAN_MOTION_DOT":"0.00011462","MEAN_MOTION":"15.06415223","OBJECT_TYPE":"PAYLOAD","INCLINATION":"53.0530","PERIAPSIS":"545.882","OBJECT_NAME":"STARLINK-2224","DECAY_DATE":null,"ELEMENT_SET_NO":"999","COUNTRY_CODE":"US","BSTAR":"0.00078679000000","MEAN_ANOMALY":"303.7083","PERIOD":"95.591","RA_OF_ASC_NODE":"223.8149","OBJECT_ID":"2021-041W","SITE":"AFETR","SEMIMAJOR_AXIS":"6925.302","NORAD_CAT_ID":"48573","TIME_SYSTEM":"UTC","GP_ID":"204537303","TLE_LINE1":"1 48573U 21041W   22145.87018934  .00011462  00000-0  78679-3 0  9993","CENTER_NAME":"EARTH","EPHEMERIS_TYPE":"0","RCS_SIZE":"LARGE","APOAPSIS":"548.452","REV_AT_EPOCH":"5662","MEAN_ELEMENT_THEORY":"SGP4","REF_FRAME":"TEME","MEAN_MOTION_DDOT":"0.0000000000000","CLASSIFICATION_TYPE":"U","EPOCH":"2022-05-25T20:53:04.358976","FILE":"3464394"},{"NORAD_CAT_ID":"48574","TIME_SYSTEM":"UTC","GP_ID":"204537553","TLE_LINE1":"1 48574U 21041X   22145.91667824 -.00465985  00000-0 -33373-1 0  9992","CENTER_NAME":"EARTH","EPHEMERIS_TYPE":"0","RCS_SIZE":"LARGE","APOAPSIS":"549.489","REV_AT_EPOCH":"130","MEAN_ELEMENT_THEORY":"SGP4","REF_FRAME":"TEME","MEAN_MOTION_DDOT":"0.0000000000000","CLASSIFICATION_TYPE":"U","EPOCH":"2022-05-25T22:00:00.999936","FILE":"3464394","TLE_LINE2":"2 48574  53.0546 193.6123 0001663  47.6704  54.4726 15.06033402  1308","LAUNCH_DATE":"2021-05-15","ARG_OF_PERICENTER":"47.6704","ECCENTRICITY":"0.00016630","MEAN_MOTION_DOT":"-0.00465985","MEAN_MOTION":"15.06033402","OBJECT_TYPE":"PAYLOAD","INCLINATION":"53.0546","PERIAPSIS":"547.185","OBJECT_NAME":"STARLINK-2225","DECAY_DATE":null,"ELEMENT_SET_NO":"999","COUNTRY_CODE":"US","BSTAR":"-0.03337300000000","MEAN_ANOMALY":"54.4726","PERIOD":"95.615","RA_OF_ASC_NODE":"193.6123","OBJECT_ID":"2021-041X","SITE":"AFETR","SEMIMAJOR_AXIS":"6926.472"},{"OBJECT_NAME":"STARLINK-2227","DECAY_DATE":null,"ELEMENT_SET_NO":"999","OBJECT_TYPE":"PAYLOAD","INCLINATION":"53.0517","PERIAPSIS":"553.757","ECCENTRICITY":"0.00014490","ARG_OF_PERICENTER":"58.8653","MEAN_MOTION_DOT":"0.00032991","MEAN_MOTION":"15.03940621","TLE_LINE2":"2 48575  53.0517 183.6666 0001449  58.8653  53.7493 15.03940621  1307","LAUNCH_DATE":"2021-05-15","SITE":"AFETR","OBJECT_ID":"2021-041Y","SEMIMAJOR_AXIS":"6932.896","RA_OF_ASC_NODE":"183.6666","PERIOD":"95.748","MEAN_ANOMALY":"53.7493","COUNTRY_CODE":"US","BSTAR":"0.00237460000000","TLE_LINE1":"1 48575U 21041Y   22145.91667824  .00032991  00000-0  23746-2 0  9992","CENTER_NAME":"EARTH","GP_ID":"204537804","TIME_SYSTEM":"UTC","NORAD_CAT_ID":"48575","FILE":"3464394","EPOCH":"2022-05-25T22:00:00.999936","MEAN_ELEMENT_THEORY":"SGP4","REF_FRAME":"TEME","MEAN_MOTION_DDOT":"0.0000000000000","CLASSIFICATION_TYPE":"U","EPHEMERIS_TYPE":"0","RCS_SIZE":"LARGE","APOAPSIS":"555.766","REV_AT_EPOCH":"130"},{"INCLINATION":"53.0572","PERIAPSIS":"546.167","OBJECT_TYPE":"PAYLOAD","ELEMENT_SET_NO":"999","OBJECT_NAME":"STARLINK-2228","DECAY_DATE":null,"TLE_LINE2":"2 48576  53.0572 198.5751 0001581  46.1600 283.7622 15.06384338  1307","LAUNCH_DATE":"2021-05-15","MEAN_MOTION":"15.06384338","ARG_OF_PERICENTER":"46.1600","ECCENTRICITY":"0.00015810","MEAN_MOTION_DOT":"0.00017168","SEMIMAJOR_AXIS":"6925.397","OBJECT_ID":"2021-041Z","SITE":"AFETR","BSTAR":"0.00116910000000","COUNTRY_CODE":"US","RA_OF_ASC_NODE":"198.5751","PERIOD":"95.593","MEAN_ANOMALY":"283.7622","GP_ID":"204538054","TLE_LINE1":"1 48576U 21041Z   22145.91667824  .00017168  00000-0  11691-2 0  9998","CENTER_NAME":"EARTH","NORAD_CAT_ID":"48576","TIME_SYSTEM":"UTC","EPOCH":"2022-05-25T22:00:00.999936","FILE":"3464394","REV_AT_EPOCH":"130","EPHEMERIS_TYPE":"0","RCS_SIZE":"LARGE","APOAPSIS":"548.356","MEAN_MOTION_DDOT":"0.0000000000000","CLASSIFICATION_TYPE":"U","MEAN_ELEMENT_THEORY":"SGP4","REF_FRAME":"TEME"},{"MEAN_MOTION_DDOT":"0.0000000000000","CLASSIFICATION_TYPE":"U","MEAN_ELEMENT_THEORY":"SGP4","REF_FRAME":"TEME","REV_AT_EPOCH":"5702","EPHEMERIS_TYPE":"0","APOAPSIS":"548.294","RCS_SIZE":"LARGE","FILE":"3463581","EPOCH":"2022-05-25T12:44:46.730688","TIME_SYSTEM":"UTC","NORAD_CAT_ID":"48577","TLE_LINE1":"1 48577U 21041AA  22145.53109642 -.00002124  00000-0 -12384-3 0  9995","CENTER_NAME":"EARTH","GP_ID":"204475632","PERIOD":"95.594","MEAN_ANOMALY":"299.6771","RA_OF_ASC_NODE":"225.3406","BSTAR":"-0.00012384000000","COUNTRY_CODE":"US","SEMIMAJOR_AXIS":"6925.423","OBJECT_ID":"2021-041AA","SITE":"AFETR","MEAN_MOTION":"15.06375672","ARG_OF_PERICENTER":"60.4363","ECCENTRICITY":"0.00014520","MEAN_MOTION_DOT":"-0.00002124","LAUNCH_DATE":"2021-05-15","TLE_LINE2":"2 48577  53.0548 225.3406 0001452  60.4363 299.6771 15.06375672 57021","ELEMENT_SET_NO":"999","OBJECT_NAME":"STARLINK-2231","DECAY_DATE":null,"INCLINATION":"53.0548","PERIAPSIS":"546.283","OBJECT_TYPE":"PAYLOAD"}];
